{
"type": "FeatureCollection",
"name": "Barrios prioritarios",
"crs": { "type": "name", "properties": { "name": "urn:ogc:def:crs:OGC:1.3:CRS84" } },
"features": [
{ "type": "Feature", "properties": { "id": null, "Name": "Don Poch", "description": null, "timestamp": null, "begin": null, "end": null, "altitudeMode": null, "tessellate": 1, "extrude": 0, "visibility": -1, "drawOrder": null, "icon": null }, "geometry": { "type": "Polygon", "coordinates": [ [ [ -89.433878691081489, 16.33972832300763, 0.0 ], [ -89.433333774120399, 16.33974845574906, 0.0 ], [ -89.432804236608462, 16.339758332652391, 0.0 ], [ -89.432396103417759, 16.339715005325971, 0.0 ], [ -89.43224613082279, 16.3398383614723, 0.0 ], [ -89.431292408966314, 16.3405658804929, 0.0 ], [ -89.431041528118996, 16.341069144433281, 0.0 ], [ -89.430980269335564, 16.341236745875559, 0.0 ], [ -89.432563398510254, 16.341458865832958, 0.0 ], [ -89.432929276682088, 16.341567874046358, 0.0 ], [ -89.433400149541839, 16.34180624100248, 0.0 ], [ -89.433558597863637, 16.341836829387098, 0.0 ], [ -89.434877453745557, 16.342655827876371, 0.0 ], [ -89.438328542969913, 16.34487609535751, 0.0 ], [ -89.441114819648149, 16.34652195827686, 0.0 ], [ -89.441946774887853, 16.34708700195165, 0.0 ], [ -89.442167417825942, 16.346860678097499, 0.0 ], [ -89.44331189225106, 16.346334828781899, 0.0 ], [ -89.443854767035816, 16.34606296298945, 0.0 ], [ -89.444101249348677, 16.34603925782806, 0.0 ], [ -89.444916344689176, 16.346619652288599, 0.0 ], [ -89.444929077043426, 16.346612234695328, 0.0 ], [ -89.445530970848424, 16.346185132159839, 0.0 ], [ -89.445192678812347, 16.345885644499919, 0.0 ], [ -89.440203972151409, 16.34292992391179, 0.0 ], [ -89.435812359370118, 16.340401967372351, 0.0 ], [ -89.434992028724452, 16.339891316437608, 0.0 ], [ -89.43478513156883, 16.339661977406038, 0.0 ], [ -89.433878691081489, 16.33972832300763, 0.0 ] ] ] } },
{ "type": "Feature", "properties": { "id": null, "Name": "Ciudad lorena", "description": null, "timestamp": null, "begin": null, "end": null, "altitudeMode": null, "tessellate": 1, "extrude": 0, "visibility": -1, "drawOrder": null, "icon": null }, "geometry": { "type": "Polygon", "coordinates": [ [ [ -89.457959196371021, 16.334003787575369, 0.0 ], [ -89.457375502798982, 16.33485582216257, 0.0 ], [ -89.456736851033398, 16.33606380967132, 0.0 ], [ -89.457076049658184, 16.336491246718701, 0.0 ], [ -89.455718694214568, 16.339455994533271, 0.0 ], [ -89.459758678060396, 16.3416481908646, 0.0 ], [ -89.459715576534904, 16.342187869238391, 0.0 ], [ -89.459129061857439, 16.343241793701448, 0.0 ], [ -89.457074011133088, 16.344871708689048, 0.0 ], [ -89.457011277486359, 16.344859935628779, 0.0 ], [ -89.456960648994013, 16.344828636664008, 0.0 ], [ -89.456935603828171, 16.344822988324591, 0.0 ], [ -89.455748421264872, 16.34540957399561, 0.0 ], [ -89.453811770539204, 16.345825021241971, 0.0 ], [ -89.453799275626167, 16.34582395914039, 0.0 ], [ -89.452405846742678, 16.346453677385892, 0.0 ], [ -89.45161225468739, 16.3462959067868, 0.0 ], [ -89.451202771514986, 16.346529069022861, 0.0 ], [ -89.451120025315205, 16.348474462738359, 0.0 ], [ -89.466165652489607, 16.348176101320188, 0.0 ], [ -89.466670601595737, 16.347743889556, 0.0 ], [ -89.466833494354901, 16.345964421501549, 0.0 ], [ -89.466272503958194, 16.344480889022321, 0.0 ], [ -89.466395475635935, 16.341952288954761, 0.0 ], [ -89.466385357615763, 16.341952304031921, 0.0 ], [ -89.466249094850482, 16.340517887249181, 0.0 ], [ -89.466040917936013, 16.339929893038001, 0.0 ], [ -89.465266779462397, 16.339527430849561, 0.0 ], [ -89.466257700849013, 16.338120167386901, 0.0 ], [ -89.457959196371021, 16.334003787575369, 0.0 ] ] ] } },
{ "type": "Feature", "properties": { "id": null, "Name": "Los pinos", "description": null, "timestamp": null, "begin": null, "end": null, "altitudeMode": null, "tessellate": 1, "extrude": 0, "visibility": -1, "drawOrder": null, "icon": null }, "geometry": { "type": "Polygon", "coordinates": [ [ [ -89.453805439477492, 16.331637410416221, 0.0 ], [ -89.453471331379404, 16.33164023117266, 0.0 ], [ -89.452692178931827, 16.33214616658438, 0.0 ], [ -89.451619499465707, 16.331742949165079, 0.0 ], [ -89.451598923948126, 16.331743542458, 0.0 ], [ -89.451312929057593, 16.332555841567409, 0.0 ], [ -89.451490930233817, 16.33355173209107, 0.0 ], [ -89.451541695214473, 16.335373901221921, 0.0 ], [ -89.451762649912297, 16.336526845254252, 0.0 ], [ -89.452893386633136, 16.336814049595549, 0.0 ], [ -89.45389254554415, 16.335876727531449, 0.0 ], [ -89.453916000653834, 16.3358618495079, 0.0 ], [ -89.455243486229591, 16.335354177709569, 0.0 ], [ -89.45605738363821, 16.33471282802256, 0.0 ], [ -89.457013712116563, 16.333358050694159, 0.0 ], [ -89.453805439477492, 16.331637410416221, 0.0 ] ] ] } },
{ "type": "Feature", "properties": { "id": null, "Name": "La Hermosa", "description": null, "timestamp": null, "begin": null, "end": null, "altitudeMode": null, "tessellate": 1, "extrude": 0, "visibility": -1, "drawOrder": null, "icon": null }, "geometry": { "type": "Polygon", "coordinates": [ [ [ -89.448589032257047, 16.3542710660906, 0.0 ], [ -89.44878915943994, 16.351468015539069, 0.0 ], [ -89.446474735975912, 16.351107759750789, 0.0 ], [ -89.44639365426616, 16.352187717416729, 0.0 ], [ -89.446315284464049, 16.35256228288344, 0.0 ], [ -89.445261696409005, 16.352303821304591, 0.0 ], [ -89.445345194608919, 16.352771147211818, 0.0 ], [ -89.447469828297955, 16.353829990807409, 0.0 ], [ -89.448225890840817, 16.354502015940849, 0.0 ], [ -89.448260707298616, 16.35452247014058, 0.0 ], [ -89.448286494080065, 16.354522789823829, 0.0 ], [ -89.448589032257047, 16.3542710660906, 0.0 ] ] ] } },
{ "type": "Feature", "properties": { "id": null, "Name": "lotificacion Las victorias", "description": null, "timestamp": null, "begin": null, "end": null, "altitudeMode": null, "tessellate": 1, "extrude": 0, "visibility": -1, "drawOrder": null, "icon": null }, "geometry": { "type": "Polygon", "coordinates": [ [ [ -89.448595742255435, 16.354922058037818, 0.0 ], [ -89.449034729315699, 16.35686066257021, 0.0 ], [ -89.449374012260861, 16.35672790716783, 0.0 ], [ -89.453033986235695, 16.353961017590319, 0.0 ], [ -89.452034533427877, 16.351800554445429, 0.0 ], [ -89.452018898532671, 16.351784668016641, 0.0 ], [ -89.450168079278228, 16.351689195324479, 0.0 ], [ -89.450147684867673, 16.35340292231594, 0.0 ], [ -89.44886038437734, 16.354375580295699, 0.0 ], [ -89.448595742255435, 16.354922058037818, 0.0 ] ] ] } },
{ "type": "Feature", "properties": { "id": null, "Name": "La Kachoch", "description": null, "timestamp": null, "begin": null, "end": null, "altitudeMode": null, "tessellate": 1, "extrude": 0, "visibility": -1, "drawOrder": null, "icon": null }, "geometry": { "type": "Polygon", "coordinates": [ [ [ -89.401862528760461, 16.31626210531882, 0.0 ], [ -89.401349197530095, 16.313795837507168, 0.0 ], [ -89.400314497217437, 16.313840077346232, 0.0 ], [ -89.400294524058154, 16.313277178557641, 0.0 ], [ -89.400127625088388, 16.312064022211182, 0.0 ], [ -89.400696805673292, 16.311877826285109, 0.0 ], [ -89.400397116691451, 16.310714981016119, 0.0 ], [ -89.399714253047989, 16.310797605020081, 0.0 ], [ -89.398835308669092, 16.310925945245401, 0.0 ], [ -89.398627612748015, 16.309312418720889, 0.0 ], [ -89.397153672973602, 16.309555680304189, 0.0 ], [ -89.396809593294492, 16.309201908609278, 0.0 ], [ -89.395286317790038, 16.30939899112094, 0.0 ], [ -89.393872783984349, 16.309920073046602, 0.0 ], [ -89.393070258489416, 16.309953965115181, 0.0 ], [ -89.391829469329465, 16.30991987583505, 0.0 ], [ -89.391837436414505, 16.309942415597469, 0.0 ], [ -89.391849774790245, 16.309949979788399, 0.0 ], [ -89.392759649380352, 16.31128673508951, 0.0 ], [ -89.391939250029324, 16.311783141612501, 0.0 ], [ -89.393332476683298, 16.314399445622762, 0.0 ], [ -89.397122069229724, 16.3169586454236, 0.0 ], [ -89.401862528760461, 16.31626210531882, 0.0 ] ] ] } },
{ "type": "Feature", "properties": { "id": null, "Name": "Los Gorriones", "description": null, "timestamp": null, "begin": null, "end": null, "altitudeMode": null, "tessellate": 1, "extrude": 0, "visibility": -1, "drawOrder": null, "icon": null }, "geometry": { "type": "Polygon", "coordinates": [ [ [ -89.405425161248019, 16.31579758962036, 0.0 ], [ -89.405419954162738, 16.315755323956779, 0.0 ], [ -89.402919473510977, 16.310325856369001, 0.0 ], [ -89.401158287239639, 16.307061285768551, 0.0 ], [ -89.399638826206868, 16.30580792426731, 0.0 ], [ -89.396687417418391, 16.306214403669902, 0.0 ], [ -89.396202920752344, 16.307010220607559, 0.0 ], [ -89.396193946527603, 16.307018481889031, 0.0 ], [ -89.394896053049422, 16.30719161372798, 0.0 ], [ -89.394563056847659, 16.307728712864812, 0.0 ], [ -89.394561048979568, 16.307760540238011, 0.0 ], [ -89.39443488529912, 16.308811222553899, 0.0 ], [ -89.394404172444411, 16.308839708346941, 0.0 ], [ -89.394390839683709, 16.308860420440979, 0.0 ], [ -89.393786240574613, 16.309118786964252, 0.0 ], [ -89.393444353101359, 16.308683523961481, 0.0 ], [ -89.39332703574884, 16.308183818157929, 0.0 ], [ -89.393360276632151, 16.307097360571571, 0.0 ], [ -89.392355604065344, 16.306623928564751, 0.0 ], [ -89.3912216258353, 16.30664024977407, 0.0 ], [ -89.390453617220203, 16.306791694307421, 0.0 ], [ -89.389568851630486, 16.30787295830941, 0.0 ], [ -89.390716591311516, 16.3100378155054, 0.0 ], [ -89.391719981820046, 16.309935297629, 0.0 ], [ -89.39377130709552, 16.309956563617909, 0.0 ], [ -89.395443983096555, 16.309311110182339, 0.0 ], [ -89.396758608785547, 16.309142010212881, 0.0 ], [ -89.396793302237583, 16.309172567500489, 0.0 ], [ -89.397283850040566, 16.309507014185709, 0.0 ], [ -89.398636978704772, 16.309277341035799, 0.0 ], [ -89.398840637497372, 16.310916320978599, 0.0 ], [ -89.40038789149844, 16.310609694072941, 0.0 ], [ -89.400729266860978, 16.31184754027219, 0.0 ], [ -89.401567228712352, 16.311630455942961, 0.0 ], [ -89.402058940008004, 16.312350621765159, 0.0 ], [ -89.401503657646657, 16.313213111578989, 0.0 ], [ -89.401080626157707, 16.31340730911635, 0.0 ], [ -89.40147559208414, 16.314001027151509, 0.0 ], [ -89.402021100183873, 16.316148197029669, 0.0 ], [ -89.405425161248019, 16.31579758962036, 0.0 ] ] ] } },
{ "type": "Feature", "properties": { "id": null, "Name": "Las Victorias", "description": null, "timestamp": null, "begin": null, "end": null, "altitudeMode": null, "tessellate": 1, "extrude": 0, "visibility": -1, "drawOrder": null, "icon": null }, "geometry": { "type": "Polygon", "coordinates": [ [ [ -89.411495162365313, 16.316341614892831, 0.0 ], [ -89.412404170142423, 16.316292056772909, 0.0 ], [ -89.412698430020953, 16.315491714157361, 0.0 ], [ -89.412176323301196, 16.315274725104839, 0.0 ], [ -89.412179028307278, 16.31526005802359, 0.0 ], [ -89.412172374648719, 16.314675328345601, 0.0 ], [ -89.412230532922123, 16.313701645031369, 0.0 ], [ -89.412586891218751, 16.313598048764671, 0.0 ], [ -89.412579201080518, 16.313586526732649, 0.0 ], [ -89.412577873990628, 16.312712307249331, 0.0 ], [ -89.412282326413418, 16.311661689625911, 0.0 ], [ -89.410147068161294, 16.312664012772078, 0.0 ], [ -89.40983219318548, 16.313082365107231, 0.0 ], [ -89.409136578045491, 16.313117988167459, 0.0 ], [ -89.408891693641849, 16.314350395329829, 0.0 ], [ -89.410100592629192, 16.315060116314118, 0.0 ], [ -89.410621767759679, 16.315345748688241, 0.0 ], [ -89.411145081959177, 16.315810003675981, 0.0 ], [ -89.411495162365313, 16.316341614892831, 0.0 ] ] ] } },
{ "type": "Feature", "properties": { "id": null, "Name": "Eben Ezeer", "description": null, "timestamp": null, "begin": null, "end": null, "altitudeMode": null, "tessellate": 1, "extrude": 0, "visibility": -1, "drawOrder": null, "icon": null }, "geometry": { "type": "Polygon", "coordinates": [ [ [ -89.410439716324547, 16.308225379727961, 0.0 ], [ -89.409303632106059, 16.308939669466419, 0.0 ], [ -89.408441428522551, 16.31075943603366, 0.0 ], [ -89.40794958925072, 16.31103215382058, 0.0 ], [ -89.40815543167102, 16.310214577403961, 0.0 ], [ -89.407386670927949, 16.310086222693521, 0.0 ], [ -89.407154180193345, 16.31146717066596, 0.0 ], [ -89.409342308708247, 16.312299341890149, 0.0 ], [ -89.410138510034344, 16.31263609658474, 0.0 ], [ -89.412324351615098, 16.311611486665289, 0.0 ], [ -89.412143376588361, 16.310883552467988, 0.0 ], [ -89.411692410926037, 16.311055158716499, 0.0 ], [ -89.411381564069117, 16.310869654855459, 0.0 ], [ -89.411096891273061, 16.310442034937711, 0.0 ], [ -89.411007519122407, 16.30920929111381, 0.0 ], [ -89.410439716324547, 16.308225379727961, 0.0 ] ] ] } },
{ "type": "Feature", "properties": { "id": null, "Name": "Bethel", "description": null, "timestamp": null, "begin": null, "end": null, "altitudeMode": null, "tessellate": 1, "extrude": 0, "visibility": -1, "drawOrder": null, "icon": null }, "geometry": { "type": "Polygon", "coordinates": [ [ [ -89.434634471104516, 16.314856112485149, 0.0 ], [ -89.434963109018469, 16.31680007963012, 0.0 ], [ -89.436637812456269, 16.31601098254643, 0.0 ], [ -89.437466949670835, 16.31562955679976, 0.0 ], [ -89.437986970574158, 16.315761886278018, 0.0 ], [ -89.438858151676769, 16.316161097183521, 0.0 ], [ -89.440720924009995, 16.315826321329581, 0.0 ], [ -89.440729101719583, 16.31582642888441, 0.0 ], [ -89.441058133964887, 16.316011797678211, 0.0 ], [ -89.441599872972134, 16.314481210329799, 0.0 ], [ -89.441576150118095, 16.313362272432862, 0.0 ], [ -89.441548681498134, 16.312737570218498, 0.0 ], [ -89.442548690294743, 16.311290940122401, 0.0 ], [ -89.442236606596197, 16.31068809472761, 0.0 ], [ -89.440465699944667, 16.310758647502041, 0.0 ], [ -89.439076117900257, 16.310880667307298, 0.0 ], [ -89.438172324131244, 16.311232379497611, 0.0 ], [ -89.43552341864175, 16.311260754400369, 0.0 ], [ -89.435534520141218, 16.311256925767282, 0.0 ], [ -89.435175671581291, 16.309057531824191, 0.0 ], [ -89.43445500088778, 16.30888656203977, 0.0 ], [ -89.432803536220064, 16.30917738734599, 0.0 ], [ -89.432556173155092, 16.31046115025606, 0.0 ], [ -89.431583864856748, 16.31136282261004, 0.0 ], [ -89.429803168866783, 16.311373565921379, 0.0 ], [ -89.429813650619792, 16.311373606899359, 0.0 ], [ -89.430052986910937, 16.310278002254481, 0.0 ], [ -89.426176531277747, 16.31021869882829, 0.0 ], [ -89.422478616639566, 16.310490609206042, 0.0 ], [ -89.42257624672871, 16.312197580587121, 0.0 ], [ -89.422592540925933, 16.31219776095643, 0.0 ], [ -89.424554317090823, 16.313714559764811, 0.0 ], [ -89.424009367836206, 16.31530260408638, 0.0 ], [ -89.423996936674101, 16.315402820447691, 0.0 ], [ -89.425969898847853, 16.31519992435155, 0.0 ], [ -89.426204861249175, 16.315223150815559, 0.0 ], [ -89.430185231931233, 16.313009181024359, 0.0 ], [ -89.432233924273419, 16.31214037143409, 0.0 ], [ -89.432539819841182, 16.313336092000679, 0.0 ], [ -89.434267425270434, 16.312921786027591, 0.0 ], [ -89.434634471104516, 16.314856112485149, 0.0 ] ] ] } },
{ "type": "Feature", "properties": { "id": null, "Name": "Santa Cruz", "description": null, "timestamp": null, "begin": null, "end": null, "altitudeMode": null, "tessellate": 1, "extrude": 0, "visibility": -1, "drawOrder": null, "icon": null }, "geometry": { "type": "Polygon", "coordinates": [ [ [ -89.395501433408754, 16.283535545404671, 0.0 ], [ -89.394559845873431, 16.281604756100069, 0.0 ], [ -89.392882649987641, 16.282081155638402, 0.0 ], [ -89.391379427127049, 16.28319325858422, 0.0 ], [ -89.390856832843014, 16.283625439704, 0.0 ], [ -89.391651468841474, 16.284795453354491, 0.0 ], [ -89.393000785164361, 16.284828860940991, 0.0 ], [ -89.395501433408754, 16.283535545404671, 0.0 ] ] ] } },
{ "type": "Feature", "properties": { "id": null, "Name": "Basurero", "description": null, "timestamp": null, "begin": null, "end": null, "altitudeMode": null, "tessellate": 1, "extrude": 0, "visibility": -1, "drawOrder": null, "icon": null }, "geometry": { "type": "Polygon", "coordinates": [ [ [ -89.409764794149339, 16.303324717863351, 0.0 ], [ -89.410742632193077, 16.30202728280603, 0.0 ], [ -89.410081490071718, 16.301440629774159, 0.0 ], [ -89.408548624137154, 16.301055799559411, 0.0 ], [ -89.408268182510369, 16.301518043943229, 0.0 ], [ -89.408922055779058, 16.302662334364719, 0.0 ], [ -89.409412405015416, 16.303356115734701, 0.0 ], [ -89.409405690584137, 16.30334827423059, 0.0 ], [ -89.409764794149339, 16.303324717863351, 0.0 ] ] ] } },
{ "type": "Feature", "properties": { "id": null, "Name": "Barrio nuevo", "description": null, "timestamp": null, "begin": null, "end": null, "altitudeMode": null, "tessellate": 1, "extrude": 0, "visibility": -1, "drawOrder": null, "icon": null }, "geometry": { "type": "Polygon", "coordinates": [ [ [ -89.4351617660692, 16.339910298981302, 0.0 ], [ -89.436885293668951, 16.341012082536029, 0.0 ], [ -89.438490331726115, 16.341813905039459, 0.0 ], [ -89.439199850888258, 16.340776699253301, 0.0 ], [ -89.437131649082801, 16.340469248077071, 0.0 ], [ -89.435013421408257, 16.339754111364069, 0.0 ], [ -89.4351617660692, 16.339910298981302, 0.0 ] ] ] } },
{ "type": "Feature", "properties": { "id": null, "Name": "Machaquila", "description": null, "timestamp": null, "begin": null, "end": null, "altitudeMode": null, "tessellate": 1, "extrude": 0, "visibility": -1, "drawOrder": null, "icon": null }, "geometry": { "type": "Polygon", "coordinates": [ [ [ -89.439873353617884, 16.371063365708359, 0.0 ], [ -89.434595728422636, 16.374736976785631, 0.0 ], [ -89.432578176226627, 16.376675820152851, 0.0 ], [ -89.434281715079692, 16.383902408559742, 0.0 ], [ -89.43628732424051, 16.395809174851351, 0.0 ], [ -89.453094086733742, 16.40087774251154, 0.0 ], [ -89.457440420157141, 16.39819903898724, 0.0 ], [ -89.462961528650212, 16.39131497374845, 0.0 ], [ -89.462727105327289, 16.3854240817132, 0.0 ], [ -89.460899817135285, 16.381949676823339, 0.0 ], [ -89.458435178193298, 16.380958830074661, 0.0 ], [ -89.45691895118118, 16.382333369421509, 0.0 ], [ -89.455724752093118, 16.381069053801689, 0.0 ], [ -89.456541394824427, 16.379721312261719, 0.0 ], [ -89.452418829935354, 16.379572718040059, 0.0 ], [ -89.446750036990167, 16.37499776105691, 0.0 ], [ -89.447018501590634, 16.371932680973689, 0.0 ], [ -89.446518716879467, 16.37149081549207, 0.0 ], [ -89.44497308141051, 16.372072002657831, 0.0 ], [ -89.443124566148001, 16.37112978598304, 0.0 ], [ -89.440442009369747, 16.371240870057338, 0.0 ], [ -89.439873353617884, 16.371063365708359, 0.0 ] ] ] } },
{ "type": "Feature", "properties": { "id": null, "Name": "Basurero  De Machaquila", "description": null, "timestamp": null, "begin": null, "end": null, "altitudeMode": null, "tessellate": 1, "extrude": 0, "visibility": -1, "drawOrder": null, "icon": null }, "geometry": { "type": "Polygon", "coordinates": [ [ [ -89.456646655925354, 16.37961060306235, 0.0 ], [ -89.455798242547175, 16.381022915467749, 0.0 ], [ -89.45696666195262, 16.382234636616111, 0.0 ], [ -89.458508869248561, 16.380818127455701, 0.0 ], [ -89.456646655925354, 16.37961060306235, 0.0 ] ] ] } },
{ "type": "Feature", "properties": { "id": null, "Name": "Morazan", "description": null, "timestamp": null, "begin": null, "end": null, "altitudeMode": null, "tessellate": 1, "extrude": 0, "visibility": -1, "drawOrder": null, "icon": null }, "geometry": { "type": "Polygon", "coordinates": [ [ [ -89.405041312050514, 16.315972049850579, 0.0 ], [ -89.397156309424588, 16.316878565917332, 0.0 ], [ -89.398158275093294, 16.317961591979461, 0.0 ], [ -89.398330288584475, 16.318940145682259, 0.0 ], [ -89.398066770367237, 16.32012270101794, 0.0 ], [ -89.39867188693151, 16.320592995558201, 0.0 ], [ -89.398703879455553, 16.32057781914731, 0.0 ], [ -89.398744210555989, 16.320554247154099, 0.0 ], [ -89.398782304521475, 16.32055838703419, 0.0 ], [ -89.398812810443928, 16.320561702928529, 0.0 ], [ -89.39992946482306, 16.32078598775048, 0.0 ], [ -89.401872971386979, 16.323229824311468, 0.0 ], [ -89.401864636170828, 16.32006235542412, 0.0 ], [ -89.401767748706533, 16.318077394819561, 0.0 ], [ -89.402243406952167, 16.317691329850049, 0.0 ], [ -89.402264341692359, 16.317669158510839, 0.0 ], [ -89.402278454245845, 16.317647101800929, 0.0 ], [ -89.402432063443854, 16.31735481569336, 0.0 ], [ -89.4038746180034, 16.317080001458059, 0.0 ], [ -89.404302034374808, 16.316846669105789, 0.0 ], [ -89.405041312050514, 16.315972049850579, 0.0 ] ] ] } }
]
}
